HAWK-A                  
1 43765U 18099H   26068.67628545  .00008617  00000+0  36104-3 0  9995
2 43765  97.4051 122.2425 0034260 275.5523  84.1807 15.23231043397949
STARLINK-34363          
1 64497U 25133AB  26068.44965454  .00013108  00000+0  45497-3 0  9991
2 64497  53.1610 117.7629 0001463  77.9990 282.1175 15.30124969 41153
